TEVEL2-6                
1 63215U 25052F   26068.64958975  .00021046  00000+0  70909-3 0  9996
2 63215  97.4016 325.0381 0004769  95.6604 264.5181 15.30760889 54861
STARLINK-34390          
1 64666U 25139C   26068.53491302  .00025068  00000+0  85699-3 0  9997
2 64666  53.1583 127.5300 0000725  82.6077 277.5007 15.30148233 40324
